NORAD_CAT_ID,OBJECT_NAME,OBJECT_TYPE,EPOCH,MEAN_MOTION,ECCENTRICITY,INCLINATION,RA_OF_ASC_NODE,ARG_OF_PERICENTER,MEAN_ANOMALY,BSTAR,MEAN_MOTION_DOT,MEAN_MOTION_DDOT,TLE_LINE0,TLE_LINE1,TLE_LINE2,SEMIMAJOR_AXIS,PERIOD,APOGEE,PERIGEE,DECAYED
54764.0,STARLINK-5458,PAYLOAD,2023-07-09 11:14:08,15.08828503,0.0001262,53.2175,97.6457,89.5957,270.518,5.8329e-05,6.4e-06,0.0,0 STARLINK-5458,1 54764U 22175G   23190.46815019  .00000640  00000-0  58329-4 0  9993,2 54764  53.2175  97.6457 0001262  89.5957 270.5180 15.08828503 30683,6917.916,95.438,540.654,538.907,0.0
54764.0,STARLINK-5458,PAYLOAD,2023-07-10 03:07:58,15.08844718,0.0001268,53.218,94.6716,93.5533,266.5604,2.1064e-05,4.7e-07,0.0,0 STARLINK-5458,1 54764U 22175G   23191.13054306  .00000047  00000-0  21064-4 0  9999,2 54764  53.2180  94.6716 0001268  93.5533 266.5604 15.08844718 30788,6917.866,95.437,540.608,538.854,0.0
54764.0,STARLINK-5458,PAYLOAD,2023-07-11 17:17:14,15.08839058,0.0001161,53.217,87.5344,89.8306,270.2819,6.9574e-05,8.2e-06,0.0,0 STARLINK-5458,1 54764U 22175G   23192.72030357  .00000820  00000-0  69574-4 0  9992,2 54764  53.2170  87.5344 0001161  89.8306 270.2819 15.08839058 31022,6917.883,95.438,540.551,538.945,0.0
54764.0,STARLINK-5458,PAYLOAD,2023-07-12 02:49:32,15.08848522,0.0001206,53.2184,85.7504,94.3355,265.7775,7.3466e-05,8.82e-06,0.0,0 STARLINK-5458,1 54764U 22175G   23193.11773678  .00000882  00000-0  73466-4 0  9999,2 54764  53.2184  85.7504 0001206  94.3355 265.7775 15.08848522 31082,6917.854,95.437,540.554,538.885,0.0
54764.0,STARLINK-5458,PAYLOAD,2023-07-12 17:08:01,15.08838227,0.000121,53.2186,83.0743,97.1289,262.9841,-4.5239e-05,-1.008e-05,0.0,0 STARLINK-5458,1 54764U 22175G   23193.71390691 -.00001008  00000-0 -45239-4 0  9995,2 54764  53.2186  83.0743 0001210  97.1289 262.9841 15.08838227 31176,6917.886,95.438,540.588,538.914,0.0
54764.0,STARLINK-5458,PAYLOAD,2023-07-13 23:20:21,15.08837966,0.000102,53.2181,77.426,86.8105,273.3004,1.5509e-05,-4.1e-07,0.0,0 STARLINK-5458,1 54764U 22175G   23194.97246903 -.00000041  00000-0  15509-4 0  9992,2 54764  53.2181  77.4260 0001020  86.8105 273.3004 15.08837966 31360,6917.887,95.438,540.457,539.046,0.0
54764.0,STARLINK-5458,PAYLOAD,2023-07-15 00:46:30,15.08850079,0.0001063,53.2184,72.6686,82.911,277.2003,0.0002041,2.963e-05,0.0,0 STARLINK-5458,1 54764U 22175G   23196.03230039  .00002963  00000-0  20410-3 0  9994,2 54764  53.2184  72.6686 0001063  82.9110 277.2003 15.08850079 31522,6917.85,95.437,540.45,538.979,0.0
54764.0,STARLINK-5458,PAYLOAD,2023-07-15 18:15:46,15.08837352,0.0001044,53.2174,69.3969,76.8612,283.2497,4.7388e-05,4.66e-06,0.0,0 STARLINK-5458,1 54764U 22175G   23196.76095039  .00000466  00000-0  47388-4 0  9993,2 54764  53.2174  69.3969 0001044  76.8612 283.2497 15.08837352 31631,6917.888,95.438,540.476,539.031,0.0
54764.0,STARLINK-5458,PAYLOAD,2023-07-16 22:52:42,15.08844823,9.64e-05,53.2169,64.0432,82.3497,277.7604,5.2111e-05,5.42e-06,0.0,0 STARLINK-5458,1 54764U 22175G   23197.95326843  .00000542  00000-0  52111-4 0  9990,2 54764  53.2169  64.0432 0000964  82.3497 277.7604 15.08844823 31814,6917.866,95.437,540.398,539.064,0.0
54764.0,STARLINK-5458,PAYLOAD,2023-07-19 00:09:39,15.08839786,0.0001049,53.217,54.825,88.4633,271.648,2.5429e-05,1.17e-06,0.0,0 STARLINK-5458,1 54764U 22175G   23200.00671255  .00000117  00000-0  25429-4 0  9991,2 54764  53.2170  54.8250 0001049  88.4633 271.6480 15.08839786 32127,6917.881,95.438,540.472,539.02,0.0
54764.0,STARLINK-5458,PAYLOAD,2023-07-20 17:29:41,15.08837885,0.0001225,53.2189,47.0938,101.1662,258.9468,0.00020483,2.973e-05,0.0,0 STARLINK-5458,1 54764U 22175G   23201.72895275  .00002973  00000-0  20483-3 0  9997,2 54764  53.2189  47.0938 0001225 101.1662 258.9468 15.08837885 32385,6917.887,95.438,540.599,538.904,0.0
54764.0,STARLINK-5458,PAYLOAD,2023-07-20 23:51:13,15.08851461,0.0001231,53.2188,45.905,81.0442,279.069,0.00010619,1.403e-05,0.0,0 STARLINK-5458,1 54764U 22175G   23201.99390767  .00001403  00000-0  10619-3 0  9999,2 54764  53.2188  45.9050 0001231  81.0442 279.0690 15.08851461 32427,6917.845,95.437,540.562,538.859,0.0
54764.0,STARLINK-5458,PAYLOAD,2023-07-21 14:09:42,15.08840883,0.0001318,53.2181,43.2323,84.0849,276.0293,3.0823e-05,2.03e-06,0.0,0 STARLINK-5458,1 54764U 22175G   23202.59007406  .00000203  00000-0  30823-4 0  9998,2 54764  53.2181  43.2323 0001318  84.0849 276.0293 15.08840883 32516,6917.878,95.437,540.654,538.831,0.0
54764.0,STARLINK-5458,PAYLOAD,2023-07-24 00:58:58,15.08843873,0.0001099,53.2179,32.2254,90.455,269.6568,7.7033e-05,9.39e-06,0.0,0 STARLINK-5458,1 54764U 22175G   23205.04095544  .00000939  00000-0  77033-4 0  9991,2 54764  53.2179  32.2254 0001099  90.4550 269.6568 15.08843873 35046,6917.869,95.437,540.494,538.973,0.0
54764.0,STARLINK-5458,PAYLOAD,2023-07-24 21:38:59,15.08843422,0.0001139,53.2183,28.3606,84.8971,275.2151,0.00015154,2.125e-05,0.0,0 STARLINK-5458,1 54764U 22175G   23205.90207743  .00002125  00000-0  15154-3 0  9996,2 54764  53.2183  28.3606 0001139  84.8971 275.2151 15.08843422 35172,6917.87,95.437,540.523,538.947,0.0
54764.0,STARLINK-5458,PAYLOAD,2023-07-26 11:48:15,15.08841914,0.000109,53.2173,21.2242,80.2987,279.8129,0.00015927,2.248e-05,0.0,0 STARLINK-5458,1 54764U 22175G   23207.49184036  .00002248  00000-0  15927-3 0  9995,2 54764  53.2173  21.2242 0001090  80.2987 279.8129 15.08841914 35418,6917.875,95.437,540.494,538.985,0.0
54764.0,STARLINK-5458,PAYLOAD,2023-07-26 21:20:33,15.08853019,0.0001404,53.2194,19.4423,92.898,267.2173,0.00021235,3.094e-05,0.0,0 STARLINK-5458,1 54764U 22175G   23207.88927345  .00003094  00000-0  21235-3 0  9995,2 54764  53.2194  19.4423 0001404  92.8980 267.2173 15.08853019 35477,6917.841,95.437,540.677,538.734,0.0
54764.0,STARLINK-5458,PAYLOAD,2023-07-27 13:14:25,15.08833955,0.0001115,53.217,16.467,88.6379,271.4741,-5.7953e-05,-1.21e-05,0.0,0 STARLINK-5458,1 54764U 22175G   23208.55168337 -.00001210  00000-0 -57953-4 0  9995,2 54764  53.2170  16.4670 0001115  88.6379 271.4741 15.08833955 35572,6917.899,95.438,540.535,538.993,0.0
54764.0,STARLINK-5458,PAYLOAD,2023-07-27 18:00:34,15.08833213,0.0001121,53.2178,15.5747,99.1662,260.9457,-5.9212e-05,-1.23e-05,0.0,0 STARLINK-5458,1 54764U 22175G   23208.75040406 -.00001230  00000-0 -59212-4 0  9995,2 54764  53.2178  15.5747 0001121  99.1662 260.9457 15.08833213 33442,6917.901,95.438,540.542,538.991,0.0
54764.0,STARLINK-5458,PAYLOAD,2023-07-28 13:05:12,15.08838601,0.0001063,53.219,12.0068,93.5605,266.5509,1.2977e-05,-8.1e-07,0.0,0 STARLINK-5458,1 54764U 22175G   23209.54528622 -.00000081  00000-0  12977-4 0  9993,2 54764  53.2190  12.0068 0001063  93.5605 266.5509 15.08838601 35723,6917.885,95.438,540.485,539.014,0.0
54764.0,STARLINK-5458,PAYLOAD,2023-07-28 17:51:21,15.08842372,0.0001193,53.2197,11.1153,102.5743,257.5382,6.0208e-05,6.71e-06,0.0,0 STARLINK-5458,1 54764U 22175G   23209.74400279  .00000671  00000-0  60208-4 0  9996,2 54764  53.2197  11.1153 0001193 102.5743 257.5382 15.08842372 33595,6917.873,95.437,540.563,538.913,0.0
54764.0,STARLINK-5458,PAYLOAD,2023-07-29 19:17:32,15.08845422,0.0001127,53.2185,6.357,98.8893,261.2227,0.00024907,3.679e-05,0.0,0 STARLINK-5458,1 54764U 22175G   23210.80384286  .00003679  00000-0  24907-3 0  9990,2 54764  53.2185   6.3570 0001127  98.8893 261.2227 15.08845422 33758,6917.864,95.437,540.508,538.949,0.0
54764.0,STARLINK-5458,PAYLOAD,2023-07-30 09:36:00,15.08838208,0.0001324,53.2185,3.6807,90.2565,269.8579,9.3016e-05,1.193e-05,0.0,0 STARLINK-5458,1 54764U 22175G   23211.40000800  .00001193  00000-0  93016-4 0  9991,2 54764  53.2185   3.6807 0001324  90.2565 269.8579 15.08838208 33840,6917.886,95.438,540.667,538.835,0.0
54764.0,STARLINK-5458,PAYLOAD,2023-07-30 20:43:42,15.08847839,9.88e-05,53.2179,1.5976,101.0554,259.0549,0.000122,1.655e-05,0.0,0 STARLINK-5458,1 54764U 22175G   23211.86368159  .00001655  00000-0  12200-3 0  9993,2 54764  53.2179   1.5976 0000988 101.0554 259.0549 15.08847839 33917,6917.856,95.437,540.405,539.038,0.0
54764.0,STARLINK-5458,PAYLOAD,2023-07-31 09:26:47,15.08840103,0.0001224,53.2186,359.2201,84.6702,275.443,7.6145e-05,9.24e-06,0.0,0 STARLINK-5458,1 54764U 22175G   23212.39360692  .00000924  00000-0  76145-4 0  9993,2 54764  53.2186 359.2201 0001224  84.6702 275.4430 15.08840103 33990,6917.88,95.438,540.592,538.898,0.0
54764.0,STARLINK-5458,PAYLOAD,2023-08-01 18:49:53,15.08849679,9.45e-05,53.2173,352.9736,99.5767,260.5332,0.00023951,3.527e-05,0.0,0 STARLINK-5458,1 54764U 22175G   23213.78464296  .00003527  00000-0  23951-3 0  9990,2 54764  53.2173 352.9736 0000945  99.5767 260.5332 15.08849679 34202,6917.851,95.437,540.37,539.062,0.0
54764.0,STARLINK-5458,PAYLOAD,2023-08-02 09:08:21,15.08839931,0.0001251,53.2172,350.2962,103.7849,256.3282,6.3428e-05,7.22e-06,0.0,0 STARLINK-5458,1 54764U 22175G   23214.38080811  .00000722  00000-0  63428-4 0  9992,2 54764  53.2172 350.2962 0001251 103.7849 256.3282 15.08839931 34299,6917.881,95.438,540.611,538.88,0.0
54764.0,STARLINK-5458,PAYLOAD,2023-08-02 18:40:39,15.08854858,0.000102,53.2175,348.5133,95.1654,264.9454,0.00027416,4.08e-05,0.0,0 STARLINK-5458,1 54764U 22175G   23214.77824048  .00004080  00000-0  27416-3 0  9990,2 54764  53.2175 348.5133 0001020  95.1654 264.9454 15.08854858 34352,6917.835,95.437,540.406,538.994,0.0
54764.0,STARLINK-5458,PAYLOAD,2023-08-03 08:59:08,15.08841792,9.01e-05,53.2172,345.8349,91.9013,268.2082,3.9866e-05,3.47e-06,0.0,0 STARLINK-5458,1 54764U 22175G   23215.37440621  .00000347  00000-0  39866-4 0  9993,2 54764  53.2172 345.8349 0000901  91.9013 268.2082 15.08841792 34445,6917.875,95.437,540.363,539.117,0.0
54764.0,STARLINK-5458,PAYLOAD,2023-08-03 20:06:50,15.08852296,0.0001016,53.2177,343.7543,86.035,274.0759,0.0001723,2.456e-05,0.0,0 STARLINK-5458,1 54764U 22175G   23215.83807956  .00002456  00000-0  17230-3 0  9995,2 54764  53.2177 343.7543 0001016  86.0350 274.0759 15.08852296 34515,6917.843,95.437,540.411,539.005,0.0
